start=new Date('2022-02-04T00:00:00.000Z').valueOf();
sats=[{"SITE":"AFETR","FILE":"3291316","MEAN_ANOMALY":"281.0535","RA_OF_ASC_NODE":"22.9250","PERIAPSIS":"546.218","NORAD_CAT_ID":"48126","OBJECT_TYPE":"PAYLOAD","MEAN_MOTION_DDOT":"0.0000000000000","ARG_OF_PERICENTER":"79.0624","INCLINATION":"53.0557","DECAY_DATE":null,"LAUNCH_DATE":"2021-04-07","TLE_LINE2":"2 48126  53.0557  22.9250 0001515  79.0624 281.0535 15.06382615 46964","RCS_SIZE":"LARGE","CENTER_NAME":"EARTH","APOAPSIS":"548.316","TLE_LINE1":"1 48126U 21027AL  22034.68934857  .00005052  00000-0  35798-3 0  9991","EPOCH":"2022-02-03T16:32:39.716448","MEAN_MOTION":"15.06382615","COUNTRY_CODE":"US","ELEMENT_SET_NO":"999","MEAN_MOTION_DOT":"0.00005052","MEAN_ELEMENT_THEORY":"SGP4","TIME_SYSTEM":"UTC","SEMIMAJOR_AXIS":"6925.402","REV_AT_EPOCH":"4696","OBJECT_ID":"2021-027AL","ECCENTRICITY":"0.00015150","EPHEMERIS_TYPE":"0","OBJECT_NAME":"STARLINK-2467","PERIOD":"95.593","BSTAR":"0.00035798000000","REF_FRAME":"TEME","GP_ID":"195264598","CLASSIFICATION_TYPE":"U"},{"MEAN_ANOMALY":"289.7171","FILE":"3291273","SITE":"AFETR","NORAD_CAT_ID":"48127","OBJECT_TYPE":"PAYLOAD","MEAN_MOTION_DDOT":"0.0000000000000","ARG_OF_PERICENTER":"70.4003","PERIAPSIS":"545.976","RA_OF_ASC_NODE":"42.0915","DECAY_DATE":null,"LAUNCH_DATE":"2021-04-07","INCLINATION":"53.0556","RCS_SIZE":"LARGE","CENTER_NAME":"EARTH","TLE_LINE2":"2 48127  53.0556  42.0915 0001711  70.4003 289.7171 15.06417263 47116","MEAN_MOTION_DOT":"0.00014009","COUNTRY_CODE":"US","ELEMENT_SET_NO":"999","EPOCH":"2022-02-03T21:06:00.384768","MEAN_MOTION":"15.06417263","TLE_LINE1":"1 48127U 21027AM  22034.87917112  .00014009  00000-0  95704-3 0  9993","APOAPSIS":"548.346","OBJECT_ID":"2021-027AM","ECCENTRICITY":"0.00017110","REV_AT_EPOCH":"4711","SEMIMAJOR_AXIS":"6925.296","TIME_SYSTEM":"UTC","MEAN_ELEMENT_THEORY":"SGP4","OBJECT_NAME":"STARLINK-2468","EPHEMERIS_TYPE":"0","CLASSIFICATION_TYPE":"U","GP_ID":"195259911","REF_FRAME":"TEME","BSTAR":"0.00095704000000","PERIOD":"95.591"},{"OBJECT_NAME":"STARLINK-2469","EPHEMERIS_TYPE":"0","GP_ID":"195260660","CLASSIFICATION_TYPE":"U","BSTAR":"0.00009140900000","PERIOD":"95.592","REF_FRAME":"TEME","COUNTRY_CODE":"US","MEAN_MOTION_DOT":"0.00001080","ELEMENT_SET_NO":"999","APOAPSIS":"548.145","EPOCH":"2022-02-03T20:26:09.902400","MEAN_MOTION":"15.06403924","TLE_LINE1":"1 48128U 21027AN  22034.85150350  .00001080  00000-0  91409-4 0  9999","REV_AT_EPOCH":"4808","ECCENTRICITY":"0.00013630","OBJECT_ID":"2021-027AN","TIME_SYSTEM":"UTC","MEAN_ELEMENT_THEORY":"SGP4","SEMIMAJOR_AXIS":"6925.337","LAUNCH_DATE":"2021-04-07","DECAY_DATE":null,"INCLINATION":"53.0585","CENTER_NAME":"EARTH","RCS_SIZE":"LARGE","TLE_LINE2":"2 48128  53.0585 332.2043 0001363  92.5065 267.6080 15.06403924 48081","MEAN_ANOMALY":"267.6080","SITE":"AFETR","FILE":"3291273","NORAD_CAT_ID":"48128","OBJECT_TYPE":"PAYLOAD","MEAN_MOTION_DDOT":"0.0000000000000","ARG_OF_PERICENTER":"92.5065","PERIAPSIS":"546.258","RA_OF_ASC_NODE":"332.2043"},{"CLASSIFICATION_TYPE":"U","GP_ID":"195260913","BSTAR":"0.00021551000000","PERIOD":"95.592","REF_FRAME":"TEME","OBJECT_NAME":"STARLINK-2471","EPHEMERIS_TYPE":"0","REV_AT_EPOCH":"4709","OBJECT_ID":"2021-027AP","ECCENTRICITY":"0.00017330","MEAN_ELEMENT_THEORY":"SGP4","TIME_SYSTEM":"UTC","SEMIMAJOR_AXIS":"6925.341","COUNTRY_CODE":"US","MEAN_MOTION_DOT":"0.00002930","ELEMENT_SET_NO":"999","APOAPSIS":"548.406","MEAN_MOTION":"15.06402516","EPOCH":"2022-02-03T17:44:18.607200","TLE_LINE1":"1 48129U 21027AP  22034.73910425  .00002930  00000-0  21551-3 0  9999","RCS_SIZE":"LARGE","CENTER_NAME":"EARTH","TLE_LINE2":"2 48129  53.0554  42.7179 0001733  68.4440 291.6733 15.06402516 47099","LAUNCH_DATE":"2021-04-07","DECAY_DATE":null,"INCLINATION":"53.0554","ARG_OF_PERICENTER":"68.4440","OBJECT_TYPE":"PAYLOAD","MEAN_MOTION_DDOT":"0.0000000000000","NORAD_CAT_ID":"48129","PERIAPSIS":"546.006","RA_OF_ASC_NODE":"42.7179","MEAN_ANOMALY":"291.6733","SITE":"AFETR","FILE":"3291273"},{"SITE":"AFETR","FILE":"3291273","MEAN_ANOMALY":"292.2213","PERIAPSIS":"546.002","RA_OF_ASC_NODE":"47.7620","NORAD_CAT_ID":"48130","OBJECT_TYPE":"PAYLOAD","MEAN_MOTION_DDOT":"0.0000000000000","ARG_OF_PERICENTER":"67.8958","INCLINATION":"53.0541","LAUNCH_DATE":"2021-04-07","DECAY_DATE":null,"TLE_LINE2":"2 48130  53.0541  47.7620 0001714  67.8958 292.2213 15.06407912 47027","CENTER_NAME":"EARTH","RCS_SIZE":"LARGE","APOAPSIS":"548.376","MEAN_MOTION":"15.06407912","EPOCH":"2022-02-03T17:29:01.394304","TLE_LINE1":"1 48130U 21027AQ  22034.72848836  .00004683  00000-0  33303-3 0  9991","MEAN_MOTION_DOT":"0.00004683","COUNTRY_CODE":"US","ELEMENT_SET_NO":"999","MEAN_ELEMENT_THEORY":"SGP4","TIME_SYSTEM":"UTC","SEMIMAJOR_AXIS":"6925.324","REV_AT_EPOCH":"4702","OBJECT_ID":"2021-027AQ","ECCENTRICITY":"0.00017140","EPHEMERIS_TYPE":"0","OBJECT_NAME":"STARLINK-2472","BSTAR":"0.00033303000000","PERIOD":"95.592","REF_FRAME":"TEME","CLASSIFICATION_TYPE":"U","GP_ID":"195259162"},{"OBJECT_TYPE":"PAYLOAD","ARG_OF_PERICENTER":"79.2477","MEAN_MOTION_DDOT":"0.0000000000000","NORAD_CAT_ID":"48131","RA_OF_ASC_NODE":"22.9699","PERIAPSIS":"545.993","MEAN_ANOMALY":"280.8702","SITE":"AFETR","FILE":"3291273","RCS_SIZE":"LARGE","CENTER_NAME":"EARTH","TLE_LINE2":"2 48131  53.0536  22.9699 0001689  79.2477 280.8702 15.06416644 47362","DECAY_DATE":null,"LAUNCH_DATE":"2021-04-07","INCLINATION":"53.0536","REV_AT_EPOCH":"4736","OBJECT_ID":"2021-027AR","ECCENTRICITY":"0.00016890","TIME_SYSTEM":"UTC","MEAN_ELEMENT_THEORY":"SGP4","SEMIMAJOR_AXIS":"6925.298","MEAN_MOTION_DOT":"0.00012010","COUNTRY_CODE":"US","ELEMENT_SET_NO":"999","APOAPSIS":"548.332","TLE_LINE1":"1 48131U 21027AR  22034.68197168  .00012010  00000-0  82340-3 0  9990","EPOCH":"2022-02-03T16:22:02.353152","MEAN_MOTION":"15.06416644","GP_ID":"195259412","CLASSIFICATION_TYPE":"U","PERIOD":"95.591","BSTAR":"0.00082340000000","REF_FRAME":"TEME","OBJECT_NAME":"STARLINK-2473","EPHEMERIS_TYPE":"0"},{"COUNTRY_CODE":"US","ELEMENT_SET_NO":"999","MEAN_MOTION_DOT":"0.00001822","MEAN_MOTION":"15.06392025","EPOCH":"2022-02-03T17:28:24.028896","TLE_LINE1":"1 48132U 21027AS  22034.72805589  .00001822  00000-0  14123-3 0  9992","APOAPSIS":"548.327","ECCENTRICITY":"0.00015730","OBJECT_ID":"2021-027AS","REV_AT_EPOCH":"4708","SEMIMAJOR_AXIS":"6925.373","MEAN_ELEMENT_THEORY":"SGP4","TIME_SYSTEM":"UTC","OBJECT_NAME":"STARLINK-2474","EPHEMERIS_TYPE":"0","GP_ID":"195260161","CLASSIFICATION_TYPE":"U","REF_FRAME":"TEME","BSTAR":"0.00014123000000","PERIOD":"95.593","MEAN_ANOMALY":"292.7298","FILE":"3291273","SITE":"AFETR","ARG_OF_PERICENTER":"67.3857","OBJECT_TYPE":"PAYLOAD","MEAN_MOTION_DDOT":"0.0000000000000","NORAD_CAT_ID":"48132","PERIAPSIS":"546.149","RA_OF_ASC_NODE":"42.7747","DECAY_DATE":null,"LAUNCH_DATE":"2021-04-07","INCLINATION":"53.0553","CENTER_NAME":"EARTH","RCS_SIZE":"LARGE","TLE_LINE2":"2 48132  53.0553  42.7747 0001573  67.3857 292.7298 15.06392025 47085"},{"TLE_LINE2":"2 48133  53.0570  42.1947 0001573  65.6127 294.5026 15.06397807 47118","CENTER_NAME":"EARTH","RCS_SIZE":"LARGE","INCLINATION":"53.0570","LAUNCH_DATE":"2021-04-07","DECAY_DATE":null,"PERIAPSIS":"546.131","RA_OF_ASC_NODE":"42.1947","NORAD_CAT_ID":"48133","OBJECT_TYPE":"PAYLOAD","MEAN_MOTION_DDOT":"0.0000000000000","ARG_OF_PERICENTER":"65.6127","SITE":"AFETR","FILE":"3291273","MEAN_ANOMALY":"294.5026","BSTAR":"0.00017261000000","PERIOD":"95.592","REF_FRAME":"TEME","GP_ID":"195260414","CLASSIFICATION_TYPE":"U","EPHEMERIS_TYPE":"0","OBJECT_NAME":"STARLINK-2475","TIME_SYSTEM":"UTC","MEAN_ELEMENT_THEORY":"SGP4","SEMIMAJOR_AXIS":"6925.355","REV_AT_EPOCH":"4711","ECCENTRICITY":"0.00015730","OBJECT_ID":"2021-027AT","APOAPSIS":"548.310","EPOCH":"2022-02-03T20:34:10.016832","MEAN_MOTION":"15.06397807","TLE_LINE1":"1 48133U 21027AT  22034.85706038  .00002290  00000-0  17261-3 0  9992","COUNTRY_CODE":"US","ELEMENT_SET_NO":"999","MEAN_MOTION_DOT":"0.00002290"},{"CLASSIFICATION_TYPE":"U","GP_ID":"195259662","BSTAR":"0.00025486000000","PERIOD":"95.592","REF_FRAME":"TEME","OBJECT_NAME":"STARLINK-2476","EPHEMERIS_TYPE":"0","REV_AT_EPOCH":"4708","OBJECT_ID":"2021-027AU","ECCENTRICITY":"0.00014980","MEAN_ELEMENT_THEORY":"SGP4","TIME_SYSTEM":"UTC","SEMIMAJOR_AXIS":"6925.323","COUNTRY_CODE":"US","MEAN_MOTION_DOT":"0.00003517","ELEMENT_SET_NO":"999","APOAPSIS":"548.225","EPOCH":"2022-02-03T17:01:51.068640","MEAN_MOTION":"15.06408499","TLE_LINE1":"1 48134U 21027AU  22034.70961885  .00003517  00000-0  25486-3 0  9991","CENTER_NAME":"EARTH","RCS_SIZE":"LARGE","TLE_LINE2":"2 48134  53.0556  42.8530 0001498  70.8811 289.2340 15.06408499 47088","DECAY_DATE":null,"LAUNCH_DATE":"2021-04-07","INCLINATION":"53.0556","MEAN_MOTION_DDOT":"0.0000000000000","OBJECT_TYPE":"PAYLOAD","NORAD_CAT_ID":"48134","ARG_OF_PERICENTER":"70.8811","PERIAPSIS":"546.150","RA_OF_ASC_NODE":"42.8530","MEAN_ANOMALY":"289.2340","SITE":"AFETR","FILE":"3291273"},{"CENTER_NAME":"EARTH","RCS_SIZE":"LARGE","TLE_LINE2":"2 48135  53.0550  47.6157 0001666  73.2068 286.9103 15.06409961 47029","LAUNCH_DATE":"2021-04-07","DECAY_DATE":null,"INCLINATION":"53.0550","OBJECT_TYPE":"PAYLOAD","NORAD_CAT_ID":"48135","MEAN_MOTION_DDOT":"0.0000000000000","ARG_OF_PERICENTER":"73.2068","PERIAPSIS":"546.029","RA_OF_ASC_NODE":"47.6157","MEAN_ANOMALY":"286.9103","SITE":"AFETR","FILE":"3291273","CLASSIFICATION_TYPE":"U","GP_ID":"195259912","BSTAR":"0.00034051000000","PERIOD":"95.592","REF_FRAME":"TEME","OBJECT_NAME":"STARLINK-2478","EPHEMERIS_TYPE":"0","REV_AT_EPOCH":"4702","ECCENTRICITY":"0.00016660","OBJECT_ID":"2021-027AV","TIME_SYSTEM":"UTC","MEAN_ELEMENT_THEORY":"SGP4","SEMIMAJOR_AXIS":"6925.318","COUNTRY_CODE":"US","ELEMENT_SET_NO":"999","MEAN_MOTION_DOT":"0.00004795","APOAPSIS":"548.337","EPOCH":"2022-02-03T18:16:46.925472","MEAN_MOTION":"15.06409961","TLE_LINE1":"1 48135U 21027AV  22034.76165423  .00004795  00000-0  34051-3 0  9999"}];
